STARLINK-3528           
1 51714U 22016A   22276.15350966  .00000573  00000+0  54077-4 0  9994
2 51714  53.2160 196.4723 0001697  61.3293 298.7870 15.08852157 35243
STARLINK-3533           
1 51715U 22016B   22276.14247088  .00000788  00000+0  67612-4 0  9991
2 51715  53.2184 196.5270 0001918  47.7327 312.3828 15.08834907 35317
STARLINK-3543           
1 51716U 22016C   22275.81863610  .00000147  00000+0  27339-4 0  9991
2 51716  53.2159 197.9803 0001839  55.4254 304.6912 15.08833381 34136
STARLINK-3445           
1 51717U 22016D   22276.07991591  .00008753  00000+0  56731-3 0  9999
2 51717  53.2151 196.8059 0002032  45.6130 314.5028 15.08841778 35307
STARLINK-3546           
1 51718U 22016E   22276.19767520  .00003759  00000+0  25416-3 0  9993
2 51718  53.2158 196.2541 0002019  50.9201 309.1970 15.08841513 35244
STARLINK-3540           
1 51719U 22016F   22275.87383823  .00007383  00000+0  48143-3 0  9997
2 51719  53.2150 197.7289 0001786  54.8383 305.2776 15.08844647 34146
STARLINK-3526           
1 51720U 22016G   22275.79655562  .00014279  00000+0  91355-3 0  9997
2 51720  53.2134 198.0528 0001834  53.8022 306.3139 15.08835041 34124
STARLINK-3524           
1 51721U 22016H   22275.20776221  .00002447  00000+0  17178-3 0  9995
2 51721  53.2148 200.7164 0001630  62.3150 297.8008 15.08842976 35167
STARLINK-3535           
1 51722U 22016J   22275.78918998  .00001829  00000+0  13296-3 0  9998
2 51722  53.2166 198.0928 0001864  53.7769 306.3395 15.08848649 34127
STARLINK-3531           
1 51723U 22016K   22275.95797664  .00036126  00000+0  22371-3 0  9995
2 51723  53.2176 109.4746 0009023 277.8990  82.1008 15.76687769 36494
STARLINK-3529           
1 51724U 22016L   22276.17927660  .00006173  00000+0  40558-3 0  9998
2 51724  53.2162 196.3452 0001966  48.5211 311.5950 15.08839373 35248
STARLINK-3522           
1 51725U 22016M   22275.26295603 -.00000377  00000+0 -55873-5 0  9993
2 51725  53.2161 200.4588 0001588  56.9638 303.1507 15.08843265 34048
STARLINK-3527           
1 51726U 22016N   22276.02195007  .00001493  00000+0  11186-3 0  9991
2 51726  53.2192 187.0570 0001903  50.5966 309.5195 15.08848100 35361
STARLINK-3532           
1 51727U 22016P   22275.78551735  .00005028  00000+0  33369-3 0  9993
2 51727  53.2150 198.1067 0001750  39.9280 320.1841 15.08851891 34121
STARLINK-3448           
1 51728U 22016Q   22276.14707391  .00000872  00000+0  72894-4 0  9995
2 51728  53.2177 186.4880 0001901  46.7746 313.3405 15.08839788 35453
STARLINK-3523           
1 51729U 22016R   22276.15811412  .00000210  00000+0  31285-4 0  9992
2 51729  53.2175 186.4367 0001887  53.1397 306.9768 15.08838013 35459
STARLINK-3530           
1 51730U 22016S   22276.13971095  .00001019  00000+0  82084-4 0  9997
2 51730  53.2190 186.5346 0001951  50.5353 309.5811 15.08854880 35381
STARLINK-3514           
1 51731U 22016T   22276.15074924 -.00002284  00000+0 -12541-3 0  9992
2 51731  53.2195 186.4759 0001674  59.3980 300.7177 15.08856016 35436
STARLINK-3518           
1 51732U 22016U   22275.73859390 -.00000519  00000+0 -14535-4 0  9999
2 51732  53.2165 188.3402 0001856  51.9527 308.1632 15.08824554 35404
STARLINK-3525           
1 51733U 22016V   22276.14338237  .00002662  00000+0  18524-3 0  9998
2 51733  53.2186 186.5068 0001851  48.1992 311.9158 15.08852166 35387
STARLINK-3450           
1 51734U 22016W   22276.12501242 -.00000727  00000+0 -27597-4 0  9998
2 51734  53.2187 186.5923 0001719  48.9451 311.1689 15.08831601 35427
STARLINK-3517           
1 51735U 22016X   22276.19860009 -.00000391  00000+0 -64357-5 0  9998
2 51735  53.2179 186.2693 0001813  56.0495 304.0669 15.08851717 35444
STARLINK-3447           
1 51736U 22016Y   22275.78644731 -.00001280  00000+0 -62378-4 0  9993
2 51736  53.2172 188.1035 0001695  55.9849 304.1304 15.08826687 34262
STARLINK-3509           
1 51737U 22016Z   22276.12868132 -.00000009  00000+0  17539-4 0  9992
2 51737  53.2167 186.5705 0001906  57.6971 302.4205 15.08832247 35376
STARLINK-3515           
1 51738U 22016AA  22276.04401791  .00000668  00000+0  60044-4 0  9997
2 51738  53.2176 186.9584 0002018  44.0145 316.1008 15.08854186 35418
STARLINK-3516           
1 51739U 22016AB  22276.18756009  .00000992  00000+0  80431-4 0  9990
2 51739  53.2191 186.3142 0001862  46.9469 313.1679 15.08846581 35440
STARLINK-3500           
1 51740U 22016AC  22276.16914330  .00000127  00000+0  26055-4 0  9995
2 51740  53.2183 186.3878 0001838  48.8131 311.3019 15.08846591 35381
STARLINK-3520           
1 51741U 22016AD  22276.11395042  .00001977  00000+0  14220-3 0  9998
2 51741  53.2175 186.6386 0001501  54.0146 306.0985 15.08854128 35425
STARLINK-3521           
1 51742U 22016AE  22276.03298526 -.00001832  00000+0 -96953-4 0  9995
2 51742  53.2187 186.9916 0001859  48.0408 312.0742 15.08859221 35439
STARLINK-3512           
1 51743U 22016AF  22276.12592155 -.00000351  00000+0 -39271-5 0  9997
2 51743  53.2169 176.5815 0002044  52.0151 308.1026 15.08848479 35580
STARLINK-3452           
1 51744U 22016AG  22276.15907462  .00002396  00000+0  16856-3 0  9993
2 51744  53.2169 186.4348 0001692  54.4120 305.7029 15.08846451 35384
STARLINK-3449           
1 51745U 22016AH  22276.10660034 -.00001849  00000+0 -98123-4 0  9992
2 51745  53.2198 186.6722 0001873  67.7965 292.3225 15.08836835 35441
STARLINK-3502           
1 51746U 22016AJ  22276.12223561  .00001759  00000+0  12857-3 0  9992
2 51746  53.2157 176.6049 0001856  55.4144 304.7023 15.08846323 35573
STARLINK-3446           
1 51747U 22016AK  22276.02932244  .00000953  00000+0  77947-4 0  9994
2 51747  53.2172 187.0262 0001843  51.5538 308.5619 15.08841932 35433
STARLINK-3501           
1 51748U 22016AL  22276.11487993  .00000352  00000+0  40257-4 0  9998
2 51748  53.2170 176.6465 0001979  48.9125 311.2038 15.08835064 35517
STARLINK-3451           
1 51749U 22016AM  22275.46355615 -.00000362  00000+0 -46364-5 0  9990
2 51749  53.2192 189.5680 0001703  59.9322 300.1839 15.08828519 34219
STARLINK-3505           
1 51750U 22016AN  22275.77632130 -.00002970  00000+0 -16858-3 0  9996
2 51750  53.2158 178.1661 0002028  45.7482 314.3676 15.08837218 34400
STARLINK-3506           
1 51751U 22016AP  22276.11855221  .00006063  00000+0  39862-3 0  9999
2 51751  53.2164 176.6294 0001979  56.6455 303.4726 15.08848861 35567
STARLINK-3511           
1 51752U 22016AQ  22276.10383200 -.00000471  00000+0 -11476-4 0  9993
2 51752  53.2156 176.6960 0001794  42.1016 318.0114 15.08848723 35567
STARLINK-3507           
1 51753U 22016AR  22275.44879781  .00000472  00000+0  47753-4 0  9990
2 51753  53.2163 179.6354 0001969  57.3868 302.7314 15.08845891 35412
STARLINK-3457           
1 51754U 22016AS  22276.09743447 -.00000237  00000+0  32337-5 0  9995
2 51754  53.2173 176.7164 0002003  42.8597 317.2551 15.08843300 35562
STARLINK-3460           
1 51755U 22016AT  22275.76895304 -.00000167  00000+0  76359-5 0  9993
2 51755  53.2164 178.1970 0001897  43.6393 316.4749 15.08835760 34400
STARLINK-3513           
1 51756U 22016AU  22275.87200342 -.00000982  00000+0 -43613-4 0  9990
2 51756  53.2182 177.7353 0001943  49.4686 310.6475 15.08845977 34427
STARLINK-3459           
1 51757U 22016AV  22276.00079348  .00006048  00000+0  39758-3 0  9998
2 51757  53.2177 177.1530 0002069  37.5116 322.6020 15.08854582 35555
STARLINK-3458           
1 51758U 22016AW  22276.13054941 -.00000856  00000+0 -35672-4 0  9990
2 51758  53.2191 176.5621 0001846  55.9121 304.2046 15.08854292 35606
STARLINK-3456           
1 51759U 22016AX  22276.12960244  .00001517  00000+0  11334-3 0  9993
2 51759  53.2178 176.5717 0001540  62.4255 297.6894 15.08846222 35598
